OBJECT_NAME,OBJECT_ID,EPOCH,MEAN_MOTION,ECCENTRICITY,INCLINATION,RA_OF_ASC_NODE,ARG_OF_PERICENTER,MEAN_ANOMALY,EPHEMERIS_TYPE,CLASSIFICATION_TYPE,NORAD_CAT_ID,ELEMENT_SET_NO,REV_AT_EPOCH,BSTAR,MEAN_MOTION_DOT,MEAN_MOTION_DDOT
ONEWEB-0336,2021-083S,2026-06-05T19:58:07.111200,13.13468350,.0002168,87.8942,322.4896,98.8967,261.2408,0,U,49202,999,22942,.22676E-3,.96E-6,0
ONEWEB-0337,2021-083T,2026-06-05T20:12:32.878080,13.13469903,.0001889,87.8944,322.4941,98.1965,261.9379,0,U,49203,999,22942,.74914E-3,.286E-5,0
ONEWEB-0338,2021-083U,2026-06-05T19:53:53.763072,13.20769455,.0001651,87.9180,276.7133,99.9184,260.2136,0,U,49204,999,23531,.43496E-4,.31E-6,0
ONEWEB-0339,2021-083V,2026-06-05T20:24:55.537056,13.13469198,.0001492,87.8944,322.4846,97.0355,263.0944,0,U,49205,999,22940,.18559E-3,.81E-6,0
ONEWEB-0340,2021-083W,2026-06-05T10:45:53.943264,13.18686650,.00020031,87.9167,337.7909,91.1084,269.0277,0,U,49206,999,22842,-.14787307E-3,-.45E-6,0
ONEWEB-0341,2021-083X,2026-06-05T10:55:36.914304,13.18686075,.00020411,87.9168,337.7951,105.4321,254.7037,0,U,49207,999,22844,.98590684E-4,.52E-6,0
ONEWEB-0342,2021-083Y,2026-06-05T20:03:36.297792,13.20770830,.0001864,87.9189,276.6993,101.1544,258.9799,0,U,49208,999,23528,-.46178E-3,-.175E-5,0
ONEWEB-0343,2021-083Z,2026-06-05T11:07:45.852096,13.18685483,.00013869,87.9174,337.7916,95.8183,264.3107,0,U,49209,999,22849,.11428122E-3,.58E-6,0
ONEWEB-0344,2021-083AA,2026-06-05T20:17:37.315392,13.13470785,.0001925,87.8935,322.5010,105.3976,254.7365,0,U,49210,999,22940,.32523E-3,.132E-5,0
ONEWEB-0345,2021-083AB,2026-06-05T20:05:25.574784,13.13469862,.0001888,87.8951,322.4817,103.9413,256.1926,0,U,49211,999,22941,.77842E-3,.297E-5,0
ONEWEB-0346,2021-083AC,2026-06-05T11:02:53.932416,13.18686359,.00024048,87.9168,337.7930,86.4704,273.6703,0,U,49212,999,22843,-.15154492E-3,-.47E-6,0
ONEWEB-0348,2021-083AD,2026-06-05T19:49:03.186048,13.20770125,.0002498,87.9191,276.7044,102.4165,257.7248,0,U,49213,999,23531,-.13203E-3,-.41E-6,0
ONEWEB-0350,2021-083AE,2026-06-05T20:22:51.455424,13.12941939,.0001947,87.8950,322.4820,101.2235,258.9113,0,U,49214,999,22944,.18981E-3,.82E-6,0
ONEWEB-0351,2021-083AF,2026-06-05T19:39:08.462016,13.20770713,.0001548,87.9189,276.7045,125.6520,234.4757,0,U,49215,999,23527,-.59619E-3,-.229E-5,0
ONEWEB-0352,2021-083AG,2026-06-05T10:42:19.688544,13.13470365,.00014162,87.8949,322.5716,101.2063,258.9226,0,U,49216,999,22948,.88427376E-3,.336E-5,0
ONEWEB-0354,2021-083AH,2026-06-05T20:18:09.965088,13.20772618,.0002264,87.9189,276.6987,105.1977,254.9407,0,U,49217,999,23531,.24328E-3,.112E-5,0
ONEWEB-0355,2021-083AJ,2026-06-05T20:32:26.273760,13.13469037,.0001696,87.8942,322.4914,101.2812,258.8508,0,U,49218,999,22941,-.15519E-3,-.44E-6,0
ONEWEB-0357,2021-083AK,2026-06-05T20:13:18.823008,13.20772616,.000173,87.9193,276.6936,105.0073,255.1252,0,U,49219,999,23531,.53957E-4,.35E-6,0
ONEWEB-0332,2021-090A,2026-06-05T19:13:22.492992,13.14504504,.00016484,87.8955,291.9785,98.1385,261.9932,0,U,49279,999,22608,-.27300572E-3,-.88E-6,0
ONEWEB-0347,2021-090B,2026-06-05T19:58:45.476256,13.20771750,.0001731,87.9189,276.7039,95.5287,264.6044,0,U,49280,999,22954,-.59261E-3,-.228E-5,0
ONEWEB-0349,2021-090C,2026-06-05T20:44:49.938432,13.20770950,.0001933,87.9196,276.6978,102.5416,257.5933,0,U,49281,999,22833,-.21461E-4,.4E-7,0
ONEWEB-0353,2021-090D,2026-06-05T09:53:55.810464,13.14502295,.00016611,87.8957,292.0516,94.4790,265.6529,0,U,49282,999,22603,-.4143223E-3,-.141E-5,0
ONEWEB-0356,2021-090E,2026-06-05T20:42:24.640416,13.20773247,.0002389,87.9187,276.6915,82.1899,277.9505,0,U,49283,999,22833,-.70354E-4,-.16E-6,0
ONEWEB-0358,2021-090F,2026-06-05T19:35:43.091808,13.20769861,.0002161,87.9189,276.7044,99.4566,260.6811,0,U,49284,999,22905,.27531E-4,.24E-6,0
ONEWEB-0359,2021-090G,2026-06-05T19:32:06.348768,13.20771894,.00022531,87.9188,276.7010,102.7465,257.3920,0,U,49285,999,22903,-.21079249E-4,.4E-7,0
ONEWEB-0360,2021-090H,2026-06-05T19:17:31.898688,13.20771771,.00019249,87.9199,276.7093,104.8371,255.2976,0,U,49286,999,22834,-.100391E-4,.9E-7,0
ONEWEB-0361,2021-090J,2026-06-05T20:39:57.521088,13.20770409,.0002062,87.9182,276.6962,98.7773,261.3593,0,U,49287,999,22880,.84402E-4,.47E-6,0
ONEWEB-0362,2021-090K,2026-06-05T19:18:45.737856,13.19725626,.00016662,87.9157,307.2466,104.5577,255.5741,0,U,49288,999,22541,-.82641562E-3,-.318E-5,0
ONEWEB-0363,2021-090L,2026-06-05T19:12:40.828320,13.20772299,.00021214,87.9187,276.7086,92.7328,267.4048,0,U,49289,999,22880,-.85899195E-3,-.336E-5,0
ONEWEB-0364,2021-090M,2026-06-05T20:08:26.983680,13.20769937,.0001976,87.9182,276.7093,101.3936,258.7420,0,U,49290,999,22994,.33233E-3,.148E-5,0
