[
  {
    "name": "ONEWEB-0336",
    "noradId": "49202",
    "line1": "1 49202U 21083S   26156.83202675  .00000096  00000+0  22676-3 0  9994",
    "line2": "2 49202  87.8942 322.4896 0002168  98.8967 261.2408 13.13468350229421"
  },
  {
    "name": "ONEWEB-0337",
    "noradId": "49203",
    "line1": "1 49203U 21083T   26156.84204720  .00000286  00000+0  74914-3 0  9992",
    "line2": "2 49203  87.8944 322.4941 0001889  98.1965 261.9379 13.13469903229424"
  },
  {
    "name": "ONEWEB-0338",
    "noradId": "49204",
    "line1": "1 49204U 21083U   26156.82909448  .00000031  00000+0  43496-4 0  9990",
    "line2": "2 49204  87.9180 276.7133 0001651  99.9184 260.2136 13.20769455235312"
  },
  {
    "name": "ONEWEB-0339",
    "noradId": "49205",
    "line1": "1 49205U 21083V   26156.85064279  .00000081  00000+0  18559-3 0  9994",
    "line2": "2 49205  87.8944 322.4846 0001492  97.0355 263.0944 13.13469198229406"
  },
  {
    "name": "ONEWEB-0340",
    "noradId": "49206",
    "line1": "1 49206U 21083W   26156.44854101 -.00000045  00000+0 -14787-3 0  9992",
    "line2": "2 49206  87.9167 337.7909 0002003  91.1084 269.0277 13.18686650228422"
  },
  {
    "name": "ONEWEB-0341",
    "noradId": "49207",
    "line1": "1 49207U 21083X   26156.45528836  .00000052  00000+0  98591-4 0  9999",
    "line2": "2 49207  87.9168 337.7951 0002041 105.4321 254.7037 13.18686075228444"
  },
  {
    "name": "ONEWEB-0342",
    "noradId": "49208",
    "line1": "1 49208U 21083Y   26156.83583678 -.00000175  00000+0 -46178-3 0  9998",
    "line2": "2 49208  87.9189 276.6993 0001864 101.1544 258.9799 13.20770830235284"
  },
  {
    "name": "ONEWEB-0343",
    "noradId": "49209",
    "line1": "1 49209U 21083Z   26156.46372514  .00000058  00000+0  11428-3 0  9991",
    "line2": "2 49209  87.9174 337.7916 0001386  95.8183 264.3107 13.18685483228495"
  },
  {
    "name": "ONEWEB-0344",
    "noradId": "49210",
    "line1": "1 49210U 21083AA  26156.84557078  .00000132  00000+0  32523-3 0  9997",
    "line2": "2 49210  87.8935 322.5010 0001925 105.3976 254.7365 13.13470785229407"
  },
  {
    "name": "ONEWEB-0345",
    "noradId": "49211",
    "line1": "1 49211U 21083AB  26156.83710156  .00000297  00000+0  77842-3 0  9990",
    "line2": "2 49211  87.8951 322.4817 0001888 103.9413 256.1926 13.13469862229412"
  },
  {
    "name": "ONEWEB-0346",
    "noradId": "49212",
    "line1": "1 49212U 21083AC  26156.46034644 -.00000047  00000+0 -15154-3 0  9994",
    "line2": "2 49212  87.9168 337.7930 0002404  86.4704 273.6703 13.18686359228437"
  },
  {
    "name": "ONEWEB-0348",
    "noradId": "49213",
    "line1": "1 49213U 21083AD  26156.82573132 -.00000041  00000+0 -13203-3 0  9992",
    "line2": "2 49213  87.9191 276.7044 0002498 102.4165 257.7248 13.20770125235315"
  },
  {
    "name": "ONEWEB-0350",
    "noradId": "49214",
    "line1": "1 49214U 21083AE  26156.84920666  .00000082  00000+0  18981-3 0  9994",
    "line2": "2 49214  87.8950 322.4820 0001947 101.2235 258.9113 13.12941939229447"
  },
  {
    "name": "ONEWEB-0351",
    "noradId": "49215",
    "line1": "1 49215U 21083AF  26156.81884794 -.00000229  00000+0 -59619-3 0  9991",
    "line2": "2 49215  87.9189 276.7045 0001548 125.6520 234.4757 13.20770713235277"
  },
  {
    "name": "ONEWEB-0352",
    "noradId": "49216",
    "line1": "1 49216U 21083AG  26156.44606121  .00000336  00000+0  88427-3 0  9993",
    "line2": "2 49216  87.8949 322.5716 0001416 101.2063 258.9226 13.13470365229482"
  },
  {
    "name": "ONEWEB-0354",
    "noradId": "49217",
    "line1": "1 49217U 21083AH  26156.84594867  .00000112  00000+0  24328-3 0  9993",
    "line2": "2 49217  87.9189 276.6987 0002264 105.1977 254.9407 13.20772618235318"
  },
  {
    "name": "ONEWEB-0355",
    "noradId": "49218",
    "line1": "1 49218U 21083AJ  26156.85585965 -.00000044  00000+0 -15519-3 0  9992",
    "line2": "2 49218  87.8942 322.4914 0001696 101.2812 258.8508 13.13469037229417"
  },
  {
    "name": "ONEWEB-0357",
    "noradId": "49219",
    "line1": "1 49219U 21083AK  26156.84257897  .00000035  00000+0  53957-4 0  9999",
    "line2": "2 49219  87.9193 276.6936 0001730 105.0073 255.1252 13.20772616235311"
  },
  {
    "name": "ONEWEB-0332",
    "noradId": "49279",
    "line1": "1 49279U 21090A   26156.80095478 -.00000088  00000+0 -27301-3 0  9997",
    "line2": "2 49279  87.8955 291.9785 0001648  98.1385 261.9932 13.14504504226086"
  },
  {
    "name": "ONEWEB-0347",
    "noradId": "49280",
    "line1": "1 49280U 21090B   26156.83247079 -.00000228  00000+0 -59261-3 0  9994",
    "line2": "2 49280  87.9189 276.7039 0001731  95.5287 264.6044 13.20771750229540"
  },
  {
    "name": "ONEWEB-0349",
    "noradId": "49281",
    "line1": "1 49281U 21090C   26156.86446688  .00000004  00000+0 -21461-4 0  9998",
    "line2": "2 49281  87.9196 276.6978 0001933 102.5416 257.5933 13.20770950228332"
  },
  {
    "name": "ONEWEB-0353",
    "noradId": "49282",
    "line1": "1 49282U 21090D   26156.41245151 -.00000141  00000+0 -41432-3 0  9994",
    "line2": "2 49282  87.8957 292.0516 0001661  94.4790 265.6529 13.14502295226033"
  },
  {
    "name": "ONEWEB-0356",
    "noradId": "49283",
    "line1": "1 49283U 21090E   26156.86278519 -.00000016  00000+0 -70354-4 0  9995",
    "line2": "2 49283  87.9187 276.6915 0002389  82.1899 277.9505 13.20773247228332"
  },
  {
    "name": "ONEWEB-0358",
    "noradId": "49284",
    "line1": "1 49284U 21090F   26156.81647097  .00000024  00000+0  27531-4 0  9998",
    "line2": "2 49284  87.9189 276.7044 0002161  99.4566 260.6811 13.20769861229055"
  },
  {
    "name": "ONEWEB-0359",
    "noradId": "49285",
    "line1": "1 49285U 21090G   26156.81396237  .00000004  00000+0 -21079-4 0  9996",
    "line2": "2 49285  87.9188 276.7010 0002253 102.7465 257.3920 13.20771894229037"
  },
  {
    "name": "ONEWEB-0360",
    "noradId": "49286",
    "line1": "1 49286U 21090H   26156.80384142  .00000009  00000+0 -10039-4 0  9997",
    "line2": "2 49286  87.9199 276.7093 0001924 104.8371 255.2976 13.20771771228349"
  },
  {
    "name": "ONEWEB-0361",
    "noradId": "49287",
    "line1": "1 49287U 21090J   26156.86108242  .00000047  00000+0  84402-4 0  9995",
    "line2": "2 49287  87.9182 276.6962 0002062  98.7773 261.3593 13.20770409228808"
  },
  {
    "name": "ONEWEB-0362",
    "noradId": "49288",
    "line1": "1 49288U 21090K   26156.80469604 -.00000318  00000+0 -82642-3 0  9998",
    "line2": "2 49288  87.9157 307.2466 0001666 104.5577 255.5741 13.19725626225411"
  },
  {
    "name": "ONEWEB-0363",
    "noradId": "49289",
    "line1": "1 49289U 21090L   26156.80047255 -.00000336  00000+0 -85899-3 0  9990",
    "line2": "2 49289  87.9187 276.7086 0002121  92.7328 267.4048 13.20772299228800"
  },
  {
    "name": "ONEWEB-0364",
    "noradId": "49290",
    "line1": "1 49290U 21090M   26156.83920120  .00000148  00000+0  33233-3 0  9990",
    "line2": "2 49290  87.9182 276.7093 0001976 101.3936 258.7420 13.20769937229942"
  }
]